OBJECT_NAME,OBJECT_ID,EPOCH,MEAN_MOTION,ECCENTRICITY,INCLINATION,RA_OF_ASC_NODE,ARG_OF_PERICENTER,MEAN_ANOMALY,EPHEMERIS_TYPE,CLASSIFICATION_TYPE,NORAD_CAT_ID,ELEMENT_SET_NO,REV_AT_EPOCH,BSTAR,MEAN_MOTION_DOT,MEAN_MOTION_DDOT
STARLINK-4635,2022-125C,2026-05-31T13:45:24.316704,15.08845500,.00012104,53.1934,212.1047,96.1883,263.9247,0,U,53966,999,20183,-.36928223E-4,-.876E-5,0
STARLINK-4634,2022-125D,2026-05-31T13:40:06.503808,15.08837606,.00013083,53.1948,212.0811,75.1470,284.9666,0,U,53967,999,20183,.16981503E-4,-.18E-6,0
STARLINK-4629,2022-125E,2026-05-31T13:24:11.161728,15.08838956,.00010965,53.1930,212.0142,81.7600,278.3516,0,U,53968,999,20183,.69338927E-4,.816E-5,0
STARLINK-4468,2022-125F,2026-06-01T03:53:16.575360,15.08833057,.00010319,53.1919,209.3811,79.4682,280.6427,0,U,53969,999,20192,.1856716E-5,-.258E-5,0
STARLINK-4567,2022-125G,2026-06-01T03:56:35.591712,15.08833860,.00012531,53.1918,204.4157,80.9161,279.1973,0,U,53970,999,20200,.15076291E-4,-.48E-6,0
STARLINK-5156,2022-125K,2026-05-31T11:43:30.154080,15.08838638,.00011848,53.1924,212.2892,78.7761,281.3364,0,U,53973,999,20182,.340872E-5,-.234E-5,0
STARLINK-5159,2022-125L,2026-05-31T09:23:01.793472,15.08844367,.00016428,53.1939,192.4537,63.4611,296.6549,0,U,53974,999,20209,-.44427496E-4,-.995E-5,0
STARLINK-5137,2022-125M,2026-06-01T04:28:18.612192,15.08834220,.00012996,53.1918,203.8528,94.4855,265.6286,0,U,53975,999,20200,.18467723E-4,.6E-7,0
STARLINK-5134,2022-125N,2026-06-01T05:36:37.980288,15.08837089,.00016382,53.1918,189.1821,66.4746,293.6418,0,U,53976,999,20221,.42589756E-4,.39E-5,0
STARLINK-5094,2022-125P,2026-06-01T04:07:12.514368,15.08842157,.00012352,53.1913,204.4551,79.0459,281.0672,0,U,53977,999,20199,-.12602787E-3,-.2293E-4,0
STARLINK-5148,2022-125Q,2026-06-01T03:40:40.351584,15.08839053,.00014119,53.1921,204.3415,94.7276,265.3877,0,U,53978,999,20199,-.39229918E-4,-.912E-5,0
STARLINK-5123,2022-125R,2026-06-01T03:51:17.255232,15.08832565,.00014149,53.1918,204.3845,73.8909,286.2238,0,U,53979,999,20199,.22999277E-4,.78E-6,0
STARLINK-5133,2022-125S,2026-05-31T11:20:17.112192,15.08840074,.00013776,53.1927,207.2028,38.4649,321.6441,0,U,53980,999,20189,-.13911873E-4,-.509E-5,0
STARLINK-5149,2022-125T,2026-06-01T03:13:29.823744,15.08830151,.00013127,53.1915,189.2869,92.8425,267.2717,0,U,53981,999,20220,-.5104045E-5,-.369E-5,0
STARLINK-5120,2022-125U,2026-06-01T02:19:15.046752,15.08816939,.00014025,53.1912,199.7068,136.6706,223.4396,0,U,53982,999,20204,-.18684227E-3,-.3258E-4,0
STARLINK-5142,2022-125W,2026-06-01T04:10:31.732896,15.08831416,.00013226,53.1911,199.4878,62.1972,297.9154,0,U,53984,999,20206,.23101556E-4,.8E-6,0
STARLINK-5147,2022-125X,2026-05-31T12:27:16.968096,15.08836853,.00011851,53.1920,202.5075,71.5753,288.5367,0,U,53985,999,20196,.6547384E-5,-.184E-5,0
STARLINK-5119,2022-125Y,2026-06-01T03:02:52.136448,15.08857757,.00009986,53.1897,189.2266,97.1571,262.9534,0,U,53986,999,20219,-.21146705E-3,-.3653E-4,0
STARLINK-5113,2022-125AA,2026-06-01T04:05:13.269408,15.08834260,.00011426,53.1904,199.4641,79.0780,281.0341,0,U,53988,999,20205,.39487838E-4,.341E-5,0
STARLINK-5118,2022-125AD,2026-06-01T02:09:55.915200,15.08832131,.00010592,53.1906,189.6407,89.4650,270.6464,0,U,53991,999,20218,.45613503E-4,.438E-5,0
STARLINK-5108,2022-125AE,2026-06-01T03:49:17.992128,15.08852215,.00014637,53.1905,199.3956,112.7164,247.3982,0,U,53992,999,20205,-.21742491E-3,-.3748E-4,0
STARLINK-5121,2022-125AF,2026-05-31T09:46:15.118752,15.08832439,.00010251,53.1931,197.5290,71.8593,288.2511,0,U,53993,999,20201,.107889E-3,.1429E-4,0
STARLINK-5125,2022-125AG,2026-05-31T13:14:54.474432,15.08835438,.00013809,53.1929,202.0034,73.5490,286.5653,0,U,53994,999,20197,.13012927E-4,-.81E-6,0
STARLINK-5097,2022-125AH,2026-06-01T03:43:59.811168,15.08831081,.0001352,53.1914,199.3761,99.5132,260.6012,0,U,53995,999,20205,-.7259151E-5,-.403E-5,0
STARLINK-5131,2022-125AJ,2026-06-01T03:28:04.609056,15.08830526,.00012903,53.1912,199.3031,85.1476,274.9663,0,U,53996,999,20206,-.603222E-6,-.298E-5,0
STARLINK-5130,2022-125AK,2026-05-31T12:23:18.268224,15.08845410,.00012697,53.1958,192.5124,61.3168,298.7952,0,U,53997,999,20210,-.29455242E-4,-.757E-5,0
STARLINK-5128,2022-125AL,2026-06-01T03:17:27.751200,15.08839169,.00011737,53.1920,199.2561,93.4120,266.7007,0,U,53998,999,20206,-.66595609E-4,-.1348E-4,0
STARLINK-5079,2022-125AM,2026-06-01T03:38:41.226720,15.08833588,.00012821,53.1931,199.3467,111.9240,248.1888,0,U,53999,999,20206,-.12921579E-4,-.494E-5,0
STARLINK-5088,2022-125AN,2026-06-01T02:36:28.084896,15.08834585,.00012115,53.1925,189.8114,89.2732,270.8398,0,U,54000,999,20219,.2777938E-4,.154E-5,0
STARLINK-5109,2022-125AQ,2026-06-01T03:08:11.185728,15.08832606,.00011598,53.1913,189.2630,86.9670,273.1454,0,U,54002,999,20220,.27549189E-4,.151E-5,0
