[ {"name": "STARLINK-4635", "line1": "1 53966U 22125C   26151.57319811 -.00000876  00000+0 -36928-4 0  9995", "line2": "2 53966  53.1934 212.1047 0001210  96.1883 263.9247 15.08845500201835"}, {"name": "STARLINK-4634", "line1": "1 53967U 22125D   26151.56951972 -.00000018  00000+0  16982-4 0  9990", "line2": "2 53967  53.1948 212.0811 0001308  75.1470 284.9666 15.08837606201832"}, {"name": "STARLINK-4629", "line1": "1 53968U 22125E   26151.55846252  .00000816  00000+0  69339-4 0  9993", "line2": "2 53968  53.1930 212.0142 0001096  81.7600 278.3516 15.08838956201833"}, {"name": "STARLINK-4468", "line1": "1 53969U 22125F   26152.16199740 -.00000258  00000+0  18567-5 0  9994", "line2": "2 53969  53.1919 209.3811 0001031  79.4682 280.6427 15.08833057201920"}, {"name": "STARLINK-4567", "line1": "1 53970U 22125G   26152.16430083 -.00000048  00000+0  15076-4 0  9992", "line2": "2 53970  53.1918 204.4157 0001253  80.9161 279.1973 15.08833860202006"}, {"name": "STARLINK-5156", "line1": "1 53973U 22125K   26151.48854345 -.00000234  00000+0  34087-5 0  9991", "line2": "2 53973  53.1924 212.2892 0001184  78.7761 281.3364 15.08838638201829"}, {"name": "STARLINK-5159", "line1": "1 53974U 22125L   26151.39099298 -.00000995  00000+0 -44427-4 0  9993", "line2": "2 53974  53.1939 192.4537 0001642  63.4611 296.6549 15.08844367202095"}, {"name": "STARLINK-5137", "line1": "1 53975U 22125M   26152.18632653  .00000006  00000+0  18468-4 0  9997", "line2": "2 53975  53.1918 203.8528 0001299  94.4855 265.6286 15.08834220202004"}, {"name": "STARLINK-5134", "line1": "1 53976U 22125N   26152.23377292  .00000390  00000+0  42590-4 0  9998", "line2": "2 53976  53.1918 189.1821 0001638  66.4746 293.6418 15.08837089202219"}, {"name": "STARLINK-5094", "line1": "1 53977U 22125P   26152.17167262 -.00002293  00000+0 -12603-3 0  9993", "line2": "2 53977  53.1913 204.4551 0001235  79.0459 281.0672 15.08842157201999"}, {"name": "STARLINK-5148", "line1": "1 53978U 22125Q   26152.15324481 -.00000912  00000+0 -39230-4 0  9992", "line2": "2 53978  53.1921 204.3415 0001411  94.7276 265.3877 15.08839053201997"}, {"name": "STARLINK-5123", "line1": "1 53979U 22125R   26152.16061638  .00000078  00000+0  22999-4 0  9991", "line2": "2 53979  53.1918 204.3845 0001414  73.8909 286.2238 15.08832565201999"}, {"name": "STARLINK-5133", "line1": "1 53980U 22125S   26151.47242028 -.00000509  00000+0 -13912-4 0  9996", "line2": "2 53980  53.1927 207.2028 0001377  38.4649 321.6441 15.08840074201895"}, {"name": "STARLINK-5149", "line1": "1 53981U 22125T   26152.13437296 -.00000369  00000+0 -51040-5 0  9993", "line2": "2 53981  53.1915 189.2869 0001312  92.8425 267.2717 15.08830151202202"}, {"name": "STARLINK-5120", "line1": "1 53982U 22125U   26152.09670193 -.00003258  00000+0 -18684-3 0  9999", "line2": "2 53982  53.1912 199.7068 0001402 136.6706 223.4396 15.08816939202043"}, {"name": "STARLINK-5142", "line1": "1 53984U 22125W   26152.17397839  .00000080  00000+0  23102-4 0  9993", "line2": "2 53984  53.1911 199.4878 0001322  62.1972 297.9154 15.08831416202066"}, {"name": "STARLINK-5147", "line1": "1 53985U 22125X   26151.51894639 -.00000184  00000+0  65474-5 0  9996", "line2": "2 53985  53.1920 202.5075 0001185  71.5753 288.5367 15.08836853201960"}, {"name": "STARLINK-5119", "line1": "1 53986U 22125Y   26152.12699232 -.00003653  00000+0 -21147-3 0  9999", "line2": "2 53986  53.1897 189.2266 0000998  97.1571 262.9534 15.08857757202194"}, {"name": "STARLINK-5113", "line1": "1 53988U 22125AA  26152.17029247  .00000341  00000+0  39488-4 0  9996", "line2": "2 53988  53.1904 199.4641 0001142  79.0780 281.0341 15.08834260202055"}, {"name": "STARLINK-5118", "line1": "1 53991U 22125AD  26152.09023050  .00000438  00000+0  45614-4 0  9992", "line2": "2 53991  53.1906 189.6407 0001059  89.4650 270.6464 15.08832131202189"}, {"name": "STARLINK-5108", "line1": "1 53992U 22125AE  26152.15923602 -.00003748  00000+0 -21742-3 0  9996", "line2": "2 53992  53.1905 199.3956 0001463 112.7164 247.3982 15.08852215202052"}, {"name": "STARLINK-5121", "line1": "1 53993U 22125AF  26151.40711943  .00001429  00000+0  10789-3 0  9998", "line2": "2 53993  53.1931 197.5290 0001025  71.8593 288.2511 15.08832439202012"}, {"name": "STARLINK-5125", "line1": "1 53994U 22125AG  26151.55201938 -.00000081  00000+0  13013-4 0  9991", "line2": "2 53994  53.1929 202.0034 0001380  73.5490 286.5653 15.08835438201971"}, {"name": "STARLINK-5097", "line1": "1 53995U 22125AH  26152.15555337 -.00000403  00000+0 -72592-5 0  9991", "line2": "2 53995  53.1914 199.3761 0001352  99.5132 260.6012 15.08831081202053"}, {"name": "STARLINK-5131", "line1": "1 53996U 22125AJ  26152.14449779 -.00000298  00000+0 -60322-6 0  9994", "line2": "2 53996  53.1912 199.3031 0001290  85.1476 274.9663 15.08830526202069"}, {"name": "STARLINK-5130", "line1": "1 53997U 22125AK  26151.51618366 -.00000757  00000+0 -29455-4 0  9995", "line2": "2 53997  53.1958 192.5124 0001269  61.3168 298.7952 15.08845410202106"}, {"name": "STARLINK-5128", "line1": "1 53998U 22125AL  26152.13712675 -.00001348  00000+0 -66596-4 0  9997", "line2": "2 53998  53.1920 199.2561 0001173  93.4120 266.7007 15.08839169202068"}, {"name": "STARLINK-5079", "line1": "1 53999U 22125AM  26152.15186605 -.00000494  00000+0 -12922-4 0  9993", "line2": "2 53999  53.1931 199.3467 0001282 111.9240 248.1888 15.08833588202067"}, {"name": "STARLINK-5088", "line1": "1 54000U 22125AN  26152.10865839  .00000154  00000+0  27779-4 0  9992", "line2": "2 54000  53.1925 189.8114 0001211  89.2732 270.8398 15.08834585202192"}, {"name": "STARLINK-5109", "line1": "1 54002U 22125AQ  26152.13068502  .00000151  00000+0  27549-4 0  9991", "line2": "2 54002  53.1913 189.2630 0001159  86.9670 273.1454 15.08832606202207"}]